OBJECT_NAME,OBJECT_ID,EPOCH,MEAN_MOTION,ECCENTRICITY,INCLINATION,RA_OF_ASC_NODE,ARG_OF_PERICENTER,MEAN_ANOMALY,EPHEMERIS_TYPE,CLASSIFICATION_TYPE,NORAD_CAT_ID,ELEMENT_SET_NO,REV_AT_EPOCH,BSTAR,MEAN_MOTION_DOT,MEAN_MOTION_DDOT
HAWK-5A,2022-057AB,2026-06-08T09:35:46.769568,15.51075265,.0005967,97.6598,317.6838,104.9107,255.2805,0,U,52757,999,22498,.29775E-3,.17256E-3,0
HAWK-6B,2023-011A,2026-06-07T09:53:13.460640,15.22842694,.00039992,40.4987,49.0839,308.4007,51.6443,0,U,55324,999,18635,.21516561E-3,.495E-4,0
HAWK-6C,2023-011C,2026-06-08T09:28:48.279072,15.22858904,.0004405,40.4977,40.1895,304.1561,55.8830,0,U,55326,999,18651,.19278E-3,.4417E-4,0
HAWK-6A,2023-011D,2026-06-06T10:15:48.597120,15.22834948,.00042951,40.4987,53.2869,292.3056,67.7298,0,U,55327,999,18621,.24210657E-3,.5594E-4,0
HAWK-7A,2023-054P,2026-06-08T04:48:09.237024,15.27262248,.0004898,97.2714,46.7655,77.1886,282.9901,0,U,56191,999,17565,.67977E-4,.1744E-4,0
HAWK-7B,2023-054R,2026-06-08T04:48:02.082240,15.27268920,.0003999,97.2737,45.0263,86.3301,273.8395,0,U,56193,999,17565,.19369E-3,.5103E-4,0
HAWK-7C,2023-054Y,2026-06-08T04:47:52.334592,15.27265730,.0004112,97.2715,45.7977,78.5999,281.5702,0,U,56200,999,17565,.18638E-3,.4908E-4,0
